{
  "type": "FeatureCollection",
  "features": [
    {
      "type": "Feature",
      "properties": {
        "norad_id": 30342,
        "name": "FENGYUN 1C DEB",
        "group": "fengyun-1c-debris",
        "lat": -47.74513155560516,
        "lon": -9.911855638496895,
        "alt_km": 1067.5928600346451,
        "timestamp": "2025-12-26T22:28:06.060009+00:00",
        "meta_object_name": "FENGYUN 1C DEB",
        "meta_object_id": "1999-025ABD",
        "meta_epoch": "2025-12-26T11:11:50.639712",
        "meta_mean_motion": 13.80063115,
        "meta_eccentricity": 0.01682518,
        "meta_inclination": 100.1959,
        "meta_ra_of_asc_node": 181.0078,
        "meta_arg_of_pericenter": 87.4042,
        "meta_mean_anomaly": 328.1099,
        "meta_ephemeris_type": 0,
        "meta_classification_type": "U",
        "meta_norad_cat_id": 30342,
        "meta_element_set_no": 999,
        "meta_rev_at_epoch": 95078,
        "meta_bstar": 0.00060882084,
        "meta_mean_motion_dot": 6.54e-06,
        "meta_mean_motion_ddot": 0,
        "tle_line1": "1 30342U 99025ABD 25360.46655833  .00000654  00000+0  60882-3 0  9994",
        "tle_line2": "2 30342 100.1959 181.0078 0168251  87.4042 328.1099 13.80063115950781"
      },
      "geometry": {
        "type": "Point",
        "coordinates": [
          -9.911855638496895,
          -47.74513155560516
        ]
      }
    },
    {
      "type": "Feature",
      "properties": {
        "norad_id": 30344,
        "name": "FENGYUN 1C DEB",
        "group": "fengyun-1c-debris",
        "lat": 18.776507225583206,
        "lon": 80.6711842819559,
        "alt_km": 716.9823141298166,
        "timestamp": "2025-12-26T22:28:06.060019+00:00",
        "meta_object_name": "FENGYUN 1C DEB",
        "meta_object_id": "1999-025ABF",
        "meta_epoch": "2025-12-26T04:19:37.050816",
        "meta_mean_motion": 14.51993284,
        "meta_eccentricity": 0.00067704,
        "meta_inclination": 98.8185,
        "meta_ra_of_asc_node": 82.9033,
        "meta_arg_of_pericenter": 82.2349,
        "meta_mean_anomaly": 308.0429,
        "meta_ephemeris_type": 0,
        "meta_classification_type": "U",
        "meta_norad_cat_id": 30344,
        "meta_element_set_no": 999,
        "meta_rev_at_epoch": 98272,
        "meta_bstar": 0.002205306,
        "meta_mean_motion_dot": 8.871e-05,
        "meta_mean_motion_ddot": 0,
        "tle_line1": "1 30344U 99025ABF 25360.18028994  .00008871  00000+0  22053-2 0  9993",
        "tle_line2": "2 30344  98.8185  82.9033 0006770  82.2349 308.0429 14.51993284982728"
      },
      "geometry": {
        "type": "Point",
        "coordinates": [
          80.6711842819559,
          18.776507225583206
        ]
      }
    },
    {
      "type": "Feature",
      "properties": {
        "norad_id": 30345,
        "name": "FENGYUN 1C DEB",
        "group": "fengyun-1c-debris",
        "lat": -80.91239314093997,
        "lon": 161.87188217111068,
        "alt_km": 754.3938792291247,
        "timestamp": "2025-12-26T22:28:06.060029+00:00",
        "meta_object_name": "FENGYUN 1C DEB",
        "meta_object_id": "1999-025ABG",
        "meta_epoch": "2025-12-26T14:33:58.516992",
        "meta_mean_motion": 14.41834589,
        "meta_eccentricity": 0.00181881,
        "meta_inclination": 98.9195,
        "meta_ra_of_asc_node": 60.5905,
        "meta_arg_of_pericenter": 203.5465,
        "meta_mean_anomaly": 156.4892,
        "meta_ephemeris_type": 0,
        "meta_classification_type": "U",
        "meta_norad_cat_id": 30345,
        "meta_element_set_no": 999,
        "meta_rev_at_epoch": 97973,
        "meta_bstar": 0.0020976126,
        "meta_mean_motion_dot": 6.83e-05,
        "meta_mean_motion_ddot": 0,
        "tle_line1": "1 30345U 99025ABG 25360.60692728  .00006830  00000+0  20976-2 0  9998",
        "tle_line2": "2 30345  98.9195  60.5905 0018188 203.5465 156.4892 14.41834589979731"
      },
      "geometry": {
        "type": "Point",
        "coordinates": [
          161.87188217111068,
          -80.91239314093997
        ]
      }
    },
    {
      "type": "Feature",
      "properties": {
        "norad_id": 30346,
        "name": "FENGYUN 1C DEB",
        "group": "fengyun-1c-debris",
        "lat": -56.74505249044233,
        "lon": 111.57726614861629,
        "alt_km": 754.5246795584908,
        "timestamp": "2025-12-26T22:28:06.060039+00:00",
        "meta_object_name": "FENGYUN 1C DEB",
        "meta_object_id": "1999-025ABH",
        "meta_epoch": "2025-12-25T05:08:23.271072",
        "meta_mean_motion": 14.34015409,
        "meta_eccentricity": 0.0055061,
        "meta_inclination": 98.8077,
        "meta_ra_of_asc_node": 96.1475,
        "meta_arg_of_pericenter": 346.13,
        "meta_mean_anomaly": 71.6635,
        "meta_ephemeris_type": 0,
        "meta_classification_type": "U",
        "meta_norad_cat_id": 30346,
        "meta_element_set_no": 999,
        "meta_rev_at_epoch": 97592,
        "meta_bstar": 0.0019443,
        "meta_mean_motion_dot": 5.48e-05,
        "meta_mean_motion_ddot": 0,
        "tle_line1": "1 30346U 99025ABH 25359.21415823  .00005480  00000+0  19443-2 0  9990",
        "tle_line2": "2 30346  98.8077  96.1475 0055061 346.1300  71.6635 14.34015409975924"
      },
      "geometry": {
        "type": "Point",
        "coordinates": [
          111.57726614861629,
          -56.74505249044233
        ]
      }
    },
    {
      "type": "Feature",
      "properties": {
        "norad_id": 30347,
        "name": "FENGYUN 1C DEB",
        "group": "fengyun-1c-debris",
        "lat": 31.518546106450387,
        "lon": 178.2897491137715,
        "alt_km": 829.8070062104507,
        "timestamp": "2025-12-26T22:28:06.060049+00:00",
        "meta_object_name": "FENGYUN 1C DEB",
        "meta_object_id": "1999-025ABJ",
        "meta_epoch": "2025-12-25T11:57:32.815872",
        "meta_mean_motion": 13.927744,
        "meta_eccentricity": 0.0150024,
        "meta_inclination": 98.3767,
        "meta_ra_of_asc_node": 182.1722,
        "meta_arg_of_pericenter": 358.3134,
        "meta_mean_anomaly": 27.0984,
        "meta_ephemeris_type": 0,
        "meta_classification_type": "U",
        "meta_norad_cat_id": 30347,
        "meta_element_set_no": 999,
        "meta_rev_at_epoch": 96138,
        "meta_bstar": 0.00015107,
        "meta_mean_motion_dot": 1.76e-06,
        "meta_mean_motion_ddot": 0,
        "tle_line1": "1 30347U 99025ABJ 25359.49829648  .00000176  00000+0  15107-3 0  9996",
        "tle_line2": "2 30347  98.3767 182.1722 0150024 358.3134  27.0984 13.92774400961385"
      },
      "geometry": {
        "type": "Point",
        "coordinates": [
          178.2897491137715,
          31.518546106450387
        ]
      }
    },
    {
      "type": "Feature",
      "properties": {
        "norad_id": 30348,
        "name": "FENGYUN 1C DEB",
        "group": "fengyun-1c-debris",
        "lat": -61.364509175523686,
        "lon": 112.674469999675,
        "alt_km": 770.937111084675,
        "timestamp": "2025-12-26T22:28:06.060060+00:00",
        "meta_object_name": "FENGYUN 1C DEB",
        "meta_object_id": "1999-025ABK",
        "meta_epoch": "2025-12-26T06:18:28.824768",
        "meta_mean_motion": 14.35238963,
        "meta_eccentricity": 0.00173251,
        "meta_inclination": 98.8628,
        "meta_ra_of_asc_node": 95.379,
        "meta_arg_of_pericenter": 332.0286,
        "meta_mean_anomaly": 88.3539,
        "meta_ephemeris_type": 0,
        "meta_classification_type": "U",
        "meta_norad_cat_id": 30348,
        "meta_element_set_no": 999,
        "meta_rev_at_epoch": 97728,
        "meta_bstar": 0.0019395778,
        "meta_mean_motion_dot": 5.517e-05,
        "meta_mean_motion_ddot": 0,
        "tle_line1": "1 30348U 99025ABK 25360.26283362  .00005517  00000+0  19396-2 0  9998",
        "tle_line2": "2 30348  98.8628  95.3790 0017325 332.0286  88.3539 14.35238963977289"
      },
      "geometry": {
        "type": "Point",
        "coordinates": [
          112.674469999675,
          -61.364509175523686
        ]
      }
    },
    {
      "type": "Feature",
      "properties": {
        "norad_id": 30349,
        "name": "FENGYUN 1C DEB",
        "group": "fengyun-1c-debris",
        "lat": 50.114485848822696,
        "lon": 153.17541122873396,
        "alt_km": 909.4769547334408,
        "timestamp": "2025-12-26T22:28:06.060070+00:00",
        "meta_object_name": "FENGYUN 1C DEB",
        "meta_object_id": "1999-025ABL",
        "meta_epoch": "2025-12-26T10:30:39.851136",
        "meta_mean_motion": 14.1120867,
        "meta_eccentricity": 0.00887642,
        "meta_inclination": 98.586,
        "meta_ra_of_asc_node": 322.2835,
        "meta_arg_of_pericenter": 333.7821,
        "meta_mean_anomaly": 145.1293,
        "meta_ephemeris_type": 0,
        "meta_classification_type": "U",
        "meta_norad_cat_id": 30349,
        "meta_element_set_no": 999,
        "meta_rev_at_epoch": 96424,
        "meta_bstar": 0.0022509129,
        "meta_mean_motion_dot": 4.172e-05,
        "meta_mean_motion_ddot": 0,
        "tle_line1": "1 30349U 99025ABL 25360.43796124  .00004172  00000+0  22509-2 0  9999",
        "tle_line2": "2 30349  98.5860 322.2835 0088764 333.7821 145.1293 14.11208670964242"
      },
      "geometry": {
        "type": "Point",
        "coordinates": [
          153.17541122873396,
          50.114485848822696
        ]
      }
    }
  ]
}